     3.02           N: GNSS NAV DATA    R: GLONASS          RINEX VERSION / TYPE                                                
Версия от 220825                        20240223 06:17:55UTCPGM / RUN BY / DATE                                                 
GLUT  0.4656612873D-09 0.000000000D+00 341118 2302          TIME SYSTEM CORR
                                                            END OF HEADER                                                       
R15 2024 02 22 09 15 00 0.819787383079D-04 0.000000000000D+00 0.378000000000D+06
    -0.132183198242D+05 0.725255966187D+00 0.186264514923D-08 0.000000000000D+00
     0.177558242188D+05-0.158121299744D+01-0.931322574616D-09 0.000000000000D+00
    -0.126604897461D+05-0.297218608856D+01 0.931322574616D-09 0.000000000000D+00
R16 2024 02 22 09 15 00 0.234656035900D-04 0.000000000000D+00 0.378000000000D+06
    -0.661017089844D+04-0.645942687988D-01 0.186264514923D-08 0.000000000000D+00
     0.241783007812D+05 0.654351234436D+00-0.931322574616D-09-0.100000000000D+01
     0.464297656250D+04-0.350383567810D+01-0.931322574616D-09 0.000000000000D+00
R17 2024 02 22 09 15 00 0.632749870419D-04 0.272848410532D-11 0.378000000000D+06
    -0.171977436523D+05-0.150343227386D+01-0.465661287308D-08 0.000000000000D+00
    -0.970095361328D+04-0.162930870056D+01-0.279396772385D-08 0.400000000000D+01
     0.161394541016D+05-0.258574771881D+01 0.931322574616D-09 0.000000000000D+00
R18 2024 02 22 09 15 00 0.128638930619D-03 0.181898940355D-11 0.378000000000D+06
    -0.942191748047D+04-0.197209072113D+01-0.279396772385D-08 0.000000000000D+00
     0.493287353516D+04-0.249019527435D+01-0.186264514923D-08-0.300000000000D+01
     0.232045981445D+05-0.266427993774D+00-0.931322574616D-09 0.000000000000D+00
R19 2024 02 22 09 15 00-0.266749411821D-03-0.909494701773D-12 0.378000000000D+06
     0.140182324219D+04-0.146284389496D+01 0.000000000000D+00 0.000000000000D+00
     0.165031152344D+05-0.222685909271D+01-0.931322574616D-09 0.300000000000D+01
     0.194003417969D+05 0.200041007996D+01-0.186264514923D-08 0.000000000000D+00
R20 2024 02 22 09 15 00-0.108673237264D-03-0.909494701773D-12 0.378000000000D+06
     0.145925751953D+05 0.103776931763D+00 0.372529029846D-08 0.000000000000D+00
     0.208567973633D+05-0.279916763306D+00 0.931322574616D-09 0.200000000000D+01
     0.120950390625D+04 0.361030197144D+01-0.186264514923D-08 0.000000000000D+00
R21 2024 02 22 09 15 00-0.789500772953D-04-0.272848410532D-11 0.378000000000D+06
     0.170388876953D+05 0.151359081268D+01 0.372529029846D-08 0.000000000000D+00
     0.972304736328D+04 0.165446758270D+01 0.186264514923D-08 0.400000000000D+01
    -0.163122666016D+05 0.256502437592D+01 0.000000000000D+00 0.000000000000D+00
R22 2024 02 22 09 15 00 0.109322369099D-03 0.181898940355D-11 0.378000000000D+06
     0.912483789062D+04 0.188055896759D+01 0.186264514923D-08 0.000000000000D+00
    -0.595011669922D+04 0.254261398315D+01 0.186264514923D-08-0.300000000000D+01
    -0.230368701172D+05 0.897245407104D-01 0.931322574616D-09 0.000000000000D+00
R23 2024 02 22 09 15 00-0.112759880722D-03-0.909494701773D-12 0.378000000000D+06
    -0.448486230469D+04 0.130011367798D+01-0.931322574616D-09 0.000000000000D+00
    -0.183890332031D+05 0.195857143402D+01 0.931322574616D-09 0.300000000000D+01
    -0.171104658203D+05-0.244531917572D+01 0.186264514923D-08 0.000000000000D+00
R24 2024 02 22 09 15 00-0.449307262897D-04-0.181898940355D-11 0.378000000000D+06
    -0.156852412109D+05-0.883140563965D-01-0.372529029846D-08 0.000000000000D+00
    -0.201022998047D+05 0.172996520996D+00-0.931322574616D-09 0.200000000000D+01
    -0.566751953125D+03-0.357665252685D+01 0.186264514923D-08 0.000000000000D+00
R26 2024 02 22 09 15 00-0.196910463274D-03 0.181898940355D-11 0.378000000000D+06
     0.219315375977D+05 0.132617664337D+01 0.000000000000D+00 0.100000000000D+01
    -0.835825000000D+04-0.384448051453D+00 0.279396772385D-08-0.600000000000D+01
     0.100431503906D+05-0.322163009644D+01-0.279396772385D-08 0.000000000000D+00
R01 2024 02 22 09 45 00 0.778120011091D-04 0.909494701773D-12 0.379800000000D+06
     0.942117187500D+04 0.255256462097D+01-0.931322574616D-09 0.000000000000D+00
    -0.130060351562D+05-0.922791481018D+00 0.931322574616D-09 0.100000000000D+01
     0.198287885742D+05-0.181734466553D+01-0.186264514923D-08 0.000000000000D+00
R02 2024 02 22 09 45 00-0.225147232413D-04 0.000000000000D+00 0.379800000000D+06
    -0.895115820312D+04 0.295576667786D+01-0.372529029846D-08 0.000000000000D+00
    -0.832798486328D+04-0.793351173401D+00-0.931322574616D-09-0.400000000000D+01
     0.224465380859D+05 0.880225181580D+00 0.000000000000D+00 0.000000000000D+00
R03 2024 02 22 09 45 00 0.949995592237D-04 0.909494701773D-12 0.379800000000D+06
    -0.225019316406D+05 0.162293910980D+01-0.372529029846D-08 0.000000000000D+00
     0.746116210938D+03-0.316355705261D+00-0.279396772385D-08 0.500000000000D+01
     0.120995986328D+05 0.304513645172D+01 0.931322574616D-09 0.000000000000D+00
R04 2024 02 22 09 45 00 0.224524177611D-03 0.181898940355D-11 0.379800000000D+06
    -0.234511279297D+05-0.554599761963D+00-0.186264514923D-08 0.000000000000D+00
     0.893159033203D+04 0.362096786499D+00-0.279396772385D-08 0.600000000000D+01
    -0.458463867188D+04 0.351483249664D+01 0.186264514923D-08 0.000000000000D+00
R05 2024 02 22 09 45 00 0.127306208015D-03 0.909494701773D-12 0.379800000000D+06
    -0.118916435547D+05-0.245254230499D+01 0.931322574616D-09 0.000000000000D+00
     0.124325576172D+05 0.816898345947D+00-0.931322574616D-09 0.100000000000D+01
    -0.188268696289D+05 0.208443069458D+01 0.186264514923D-08 0.000000000000D+00
R06 2024 02 22 09 45 00-0.151747837663D-03-0.909494701773D-12 0.379800000000D+06
     0.104451723633D+05-0.287480258942D+01 0.372529029846D-08 0.000000000000D+00
     0.758384765625D+04 0.898579597473D+00 0.931322574616D-09-0.400000000000D+01
    -0.220025786133D+05-0.105693817139D+01 0.000000000000D+00 0.000000000000D+00
R07 2024 02 22 09 45 00 0.763796269894D-04 0.000000000000D+00 0.379800000000D+06
     0.228297866211D+05-0.152521038055D+01 0.372529029846D-08 0.000000000000D+00
    -0.125177783203D+04 0.291197776794D+00 0.279396772385D-08 0.500000000000D+01
    -0.112107500000D+05-0.313022804260D+01-0.931322574616D-09 0.000000000000D+00
R08 2024 02 22 09 45 00-0.744843855500D-04 0.000000000000D+00 0.379800000000D+06
     0.232254082031D+05 0.595685005188D+00 0.186264514923D-08 0.000000000000D+00
    -0.928709472656D+04-0.357750892639D+00 0.279396772385D-08 0.600000000000D+01
     0.497531347656D+04-0.349689006805D+01-0.186264514923D-08 0.000000000000D+00
R09 2024 02 22 09 45 00 0.171382911503D-03 0.181898940355D-11 0.379800000000D+06
     0.361623681641D+04-0.351891517639D+00 0.931322574616D-09 0.000000000000D+00
     0.200593793945D+05 0.206502532959D+01-0.931322574616D-09-0.200000000000D+01
     0.152972353516D+05-0.263426017761D+01-0.186264514923D-08 0.000000000000D+00
R10 2024 02 22 09 45 00-0.126425176859D-03-0.454747350886D-11 0.379800000000D+06
     0.971017285156D+04-0.645410537720D+00 0.000000000000D+00 0.000000000000D+00
     0.654411328125D+04 0.303639125824D+01 0.000000000000D+00-0.700000000000D+01
     0.226546235352D+05-0.592649459839D+00-0.279396772385D-08 0.000000000000D+00
R11 2024 02 22 09 45 00 0.335294753313D-04-0.909494701773D-12 0.379800000000D+06
     0.119173627930D+05-0.652011871338D+00-0.931322574616D-09 0.000000000000D+00
    -0.129680444336D+05 0.244277954102D+01 0.931322574616D-09 0.000000000000D+00
     0.184639277344D+05 0.213558006287D+01-0.186264514923D-08 0.000000000000D+00
R12 2024 02 22 09 45 00 0.370070338249D-04 0.000000000000D+00 0.379800000000D+06
     0.646510498047D+04-0.189917564392D+00-0.186264514923D-08 0.000000000000D+00
    -0.246225273438D+05 0.163524627685D+00 0.186264514923D-08-0.100000000000D+01
     0.149510107422D+04 0.355738830566D+01 0.000000000000D+00 0.000000000000D+00
R13 2024 02 22 09 45 00-0.446019694209D-04 0.000000000000D+00 0.379800000000D+06
    -0.188151953125D+04 0.280986785889D+00-0.931322574616D-09 0.000000000000D+00
    -0.215816835938D+05-0.182446193695D+01 0.931322574616D-09-0.200000000000D+01
    -0.134831806641D+05 0.288576889038D+01 0.186264514923D-08 0.000000000000D+00
R14 2024 02 22 09 45 00 0.260816887021D-04 0.000000000000D+00 0.379800000000D+06
    -0.104568334961D+05 0.677394866943D+00 0.000000000000D+00 0.000000000000D+00
    -0.420892236328D+04-0.305815887451D+01 0.000000000000D+00-0.700000000000D+01
    -0.228780219727D+05 0.251317024231D+00 0.279396772385D-08 0.000000000000D+00
R15 2024 02 22 09 45 00 0.819778069854D-04-0.909494701773D-12 0.379800000000D+06
    -0.119586235352D+05 0.635444641113D+00 0.931322574616D-09 0.000000000000D+00
     0.142345092773D+05-0.230761241913D+01-0.931322574616D-09 0.000000000000D+00
    -0.174513056641D+05-0.231632900238D+01 0.186264514923D-08 0.000000000000D+00
R16 2024 02 22 09 45 00 0.234656035900D-04 0.000000000000D+00 0.379800000000D+06
    -0.643683203125D+04 0.218793869019D+00 0.186264514923D-08 0.000000000000D+00
     0.246020747070D+05-0.198338508606D+00-0.186264514923D-08-0.100000000000D+01
    -0.176214062500D+04-0.356665134430D+01 0.000000000000D+00 0.000000000000D+00
R17 2024 02 22 09 45 00 0.632796436548D-04 0.272848410532D-11 0.379800000000D+06
    -0.196834291992D+05-0.121225643158D+01-0.465661287308D-08 0.000000000000D+00
    -0.119754604492D+05-0.897846221924D+00-0.186264514923D-08 0.400000000000D+01
     0.109207949219D+05-0.317513561249D+01 0.931322574616D-09 0.000000000000D+00
R18 2024 02 22 09 45 00 0.128643587232D-03 0.181898940355D-11 0.379800000000D+06
    -0.132064423828D+05-0.219172286987D+01-0.372529029846D-08 0.000000000000D+00
     0.832961914062D+03-0.203264045715D+01-0.186264514923D-08-0.300000000000D+01
     0.218364418945D+05-0.124376869202D+01 0.000000000000D+00 0.000000000000D+00
